{"type":"FeatureCollection","features":[{"type":"Feature","properties":{"id":1,"name":"勝州"},"geometry":{"type":"Point","coordinates":[111.12826627705657,40.25863730133624]}},{"type":"Feature","properties":{"id":2,"name":"榆林關"},"geometry":{"type":"Point","coordinates":[111.13629881783513,40.30520860338669]}},{"type":"Feature","properties":{"id":2,"name":"金河縣"},"geometry":{"type":"Point","coordinates":[111.54515514346426,40.70930827811162]}},{"type":"Feature","properties":{"id":4,"name":"武川"},"geometry":{"type":"Point","coordinates":[111.47527203869076,41.17871811061204]}},{"type":"Feature","properties":{"id":5,"name":"撫冥鎮"},"geometry":{"type":"Point","coordinates":[112.59259846098946,41.34737879698756]}},{"type":"Feature","properties":{"id":6,"name":"柔玄鎮"},"geometry":{"type":"Point","coordinates":[113.81916743787676,40.977691145110995]}},{"type":"Feature","properties":{"id":8,"name":"懷荒鎮"},"geometry":{"type":"Point","coordinates":[114.73300282711845,41.145659572472596]}},{"type":"Feature","properties":{"id":11,"name":"張家口"},"geometry":{"type":"Point","coordinates":[114.75924246032847,40.7216878781291]}},{"type":"Feature","properties":{"id":12,"name":"天鎮"},"geometry":{"type":"Point","coordinates":[114.13832705814524,40.45328764142216]}},{"type":"Feature","properties":{"id":13,"name":"宣化"},"geometry":{"type":"Point","coordinates":[115.03341985223693,40.56809953597142]}},{"type":"Feature","properties":{"id":15,"name":"新州"},"geometry":{"type":"Point","coordinates":[115.1295425902205,40.34215683456178]}},{"type":"Feature","properties":{"id":15,"name":"懷柔縣"},"geometry":{"type":"Point","coordinates":[115.65861927616885,40.3250121040562]}},{"type":"Feature","properties":{"id":16,"name":"蔚州"},"geometry":{"type":"Point","coordinates":[114.56137420581653,39.8273613744937]}},{"type":"Feature","properties":{"id":18,"name":"陽原"},"geometry":{"type":"Point","coordinates":[114.2210622281646,40.08063636140673]}},{"type":"Feature","properties":{"id":19,"name":"雲州"},"geometry":{"type":"Point","coordinates":[113.31579488242006,40.058916994473456]}},{"type":"Feature","properties":{"id":20,"name":"盛樂故城"},"geometry":{"type":"Point","coordinates":[111.75627709026134,40.56860801630854]}},{"type":"Feature","properties":{"id":22,"name":"善陽關"},"geometry":{"type":"Point","coordinates":[111.6307017027564,40.154655505374166]}},{"type":"Feature","properties":{"id":23,"name":"馬邑"},"geometry":{"type":"Point","coordinates":[112.32765849097669,39.29096399012245]}},{"type":"Feature","properties":{"id":24,"name":"靜樂縣"},"geometry":{"type":"Point","coordinates":[111.87274893155046,38.413130058594746]}},{"type":"Feature","properties":{"id":25,"name":"嵐州"},"geometry":{"type":"Point","coordinates":[111.62621686748828,38.419161466855265]}},{"type":"Feature","properties":{"id":27,"name":"忻州"},"geometry":{"type":"Point","coordinates":[112.66884066054611,38.4244057603945]}},{"type":"Feature","properties":{"id":30,"name":"定襄縣"},"geometry":{"type":"Point","coordinates":[112.9906777944073,38.5472229032635]}},{"type":"Feature","properties":{"id":31,"name":"五臺縣"},"geometry":{"type":"Point","coordinates":[113.29323683039993,38.734188902578666]}},{"type":"Feature","properties":{"id":33,"name":"亭點院"},"geometry":{"type":"Point","coordinates":[113.59659912047044,38.94940844381116]}},{"type":"Feature","properties":{"id":35,"name":"雁門縣"},"geometry":{"type":"Point","coordinates":[112.91383315429236,39.084836891793515]}},{"type":"Feature","properties":{"id":36,"name":"魚詩院"},"geometry":{"type":"Point","coordinates":[113.6769245282561,38.90733338540193]}},{"type":"Feature","properties":{"id":36,"name":"茶鋪院"},"geometry":{"type":"Point","coordinates":[113.75484017380819,38.883368615963754]}},{"type":"Feature","properties":{"id":37,"name":"張花院"},"geometry":{"type":"Point","coordinates":[113.8011611589646,38.86877740600071]}},{"type":"Feature","properties":{"id":38,"name":"上房院"},"geometry":{"type":"Point","coordinates":[113.4407678293663,38.85001287725609]}},{"type":"Feature","properties":{"id":40,"name":"大賢嶺院"},"geometry":{"type":"Point","coordinates":[113.33527379380779,38.7636322845262]}},{"type":"Feature","properties":{"id":40,"name":"龍泉院"},"geometry":{"type":"Point","coordinates":[113.85471143082171,38.865024896381826]}},{"type":"Feature","properties":{"id":42,"name":"塘城院"},"geometry":{"type":"Point","coordinates":[113.9270042978288,38.863774015826216]}},{"type":"Feature","properties":{"id":44,"name":"净水院"},"geometry":{"type":"Point","coordinates":[114.06355749106442,38.85918726550296]}},{"type":"Feature","properties":{"id":45,"name":"阜平"},"geometry":{"type":"Point","coordinates":[114.16731114278751,38.85115974050573]}},{"type":"Feature","properties":{"id":46,"name":"東莞院"},"geometry":{"type":"Point","coordinates":[114.30386433602314,38.770625912618584]}},{"type":"Feature","properties":{"id":48,"name":"兩嶺院"},"geometry":{"type":"Point","coordinates":[114.39141903050951,38.653209279788754]}},{"type":"Feature","properties":{"id":49,"name":"劉使院"},"geometry":{"type":"Point","coordinates":[114.43265273983951,38.594010123942866]}},{"type":"Feature","properties":{"id":50,"name":"八會寺"},"geometry":{"type":"Point","coordinates":[114.46665716246876,38.53224874759785]}},{"type":"Feature","properties":{"id":52,"name":"行唐縣"},"geometry":{"type":"Point","coordinates":[114.50815862315802,38.45533934141536]}},{"type":"Feature","properties":{"id":55,"name":"曲陽"},"geometry":{"type":"Point","coordinates":[114.73253426223931,38.59924169907669]}},{"type":"Feature","properties":{"id":56,"name":"城子裏"},"geometry":{"type":"Point","coordinates":[114.86185816877419,38.655195682754254]}},{"type":"Feature","properties":{"id":57,"name":"和家砦"},"geometry":{"type":"Point","coordinates":[114.47027180581914,38.90181178600241]}},{"type":"Feature","properties":{"id":59,"name":"倒馬關"},"geometry":{"type":"Point","coordinates":[114.5741593332219,39.104889844231934]}},{"type":"Feature","properties":{"id":30,"name":"廣昌縣"},"geometry":{"type":"Point","coordinates":[114.65261048149263,39.29826823788306]}},{"type":"Feature","properties":{"id":31,"name":"易縣"},"geometry":{"type":"Point","coordinates":[115.47996218168485,39.32354230469354]}},{"type":"Feature","properties":{"id":33,"name":"板城縣"},"geometry":{"type":"Point","coordinates":[115.48960123061913,39.543578126442995]}},{"type":"Feature","properties":{"id":34,"name":"淶水縣"},"geometry":{"type":"Point","coordinates":[115.69630527998756,39.405516520695826]}},{"type":"Feature","properties":{"id":40,"name":"范陽縣"},"geometry":{"type":"Point","coordinates":[115.99404479151309,39.540274464836095]}},{"type":"Feature","properties":{"id":41,"name":"良鄉縣"},"geometry":{"type":"Point","coordinates":[116.14077253640154,39.74892132654566]}},{"type":"Feature","properties":{"id":43,"name":"薊縣"},"geometry":{"type":"Point","coordinates":[116.28321625954145,39.94708603072546]}},{"type":"Feature","properties":{"id":44,"name":"昌平縣"},"geometry":{"type":"Point","coordinates":[116.28642927585285,40.18723726338946]}},{"type":"Feature","properties":{"id":45,"name":"定州"},"geometry":{"type":"Point","coordinates":[115.03442391983371,38.521984938681854]}},{"type":"Feature","properties":{"id":46,"name":"新樂縣"},"geometry":{"type":"Point","coordinates":[114.85985003357955,38.418007671180575]}},{"type":"Feature","properties":{"id":47,"name":"望都縣"},"geometry":{"type":"Point","coordinates":[115.1565185396679,38.71361309509282]}},{"type":"Feature","properties":{"id":49,"name":"望都故城"},"geometry":{"type":"Point","coordinates":[115.00443576759375,38.75287954911997]}},{"type":"Feature","properties":{"id":51,"name":"北平縣"},"geometry":{"type":"Point","coordinates":[115.23737945017214,38.84094158011765]}},{"type":"Feature","properties":{"id":52,"name":"滿城縣"},"geometry":{"type":"Point","coordinates":[115.33269893407777,38.95221950105077]}},{"type":"Feature","properties":{"id":55,"name":"五廽縣"},"geometry":{"type":"Point","coordinates":[114.96320205826375,39.2232209767758]}},{"type":"Feature","properties":{"id":56,"name":"渾源縣"},"geometry":{"type":"Point","coordinates":[113.60623816940469,39.711032367241614]}},{"type":"Feature","properties":{"id":57,"name":"懷仁縣"},"geometry":{"type":"Point","coordinates":[113.12642773356502,39.88629963584435]}},{"type":"Feature","properties":{"id":59,"name":"神堆塞"},"geometry":{"type":"Point","coordinates":[113.1285697444393,39.79831040916184]}},{"type":"Feature","properties":{"id":60,"name":"黃花堆"},"geometry":{"type":"Point","coordinates":[113.12749873900216,39.72009466491079]}},{"type":"Feature","properties":{"id":61,"name":"桑乾鎮"},"geometry":{"type":"Point","coordinates":[113.07823248889362,39.62364376524978]}},{"type":"Feature","properties":{"id":66,"name":"雁門關"},"geometry":{"type":"Point","coordinates":[112.75157583056529,39.19168547311965]}},{"type":"Feature","properties":{"id":67,"name":"馬邑縣"},"geometry":{"type":"Point","coordinates":[112.5582593491611,39.42330628369288]}},{"type":"Feature","properties":{"id":70,"name":"寧武"},"geometry":{"type":"Point","coordinates":[112.274978411037,39.0138265088075]}},{"type":"Feature","properties":{"id":76,"name":"樓煩關"},"geometry":{"type":"Point","coordinates":[112.274978411037,38.956383825364036]}},{"type":"Feature","properties":{"id":79,"name":"伏戎城"},"geometry":{"type":"Point","coordinates":[112.03078917136857,38.684358098537665]}},{"type":"Feature","properties":{"id":80,"name":"嵐谷縣"},"geometry":{"type":"Point","coordinates":[111.51777756697747,38.737843883044185]}},{"type":"Feature","properties":{"id":81,"name":"合和縣"},"geometry":{"type":"Point","coordinates":[110.92122753848932,38.51695723286901]}},{"type":"Feature","properties":{"id":83,"name":"唐林縣"},"geometry":{"type":"Point","coordinates":[112.69481254239662,38.7578907341838]}},{"type":"Feature","properties":{"id":84,"name":"平魯"},"geometry":{"type":"Point","coordinates":[112.11593410362129,39.76209521351046]}},{"type":"Feature","properties":{"id":88,"name":"御夷鎮"},"geometry":{"type":"Point","coordinates":[115.79697979107868,41.15387536986614]}},{"type":"Feature","properties":{"id":89,"name":"白雲城"},"geometry":{"type":"Point","coordinates":[115.89122826954718,40.623958403690494]}},{"type":"Feature","properties":{"id":61,"name":"真定縣"},"geometry":{"type":"Point","coordinates":[114.49838569854383,38.1553037085905]}},{"type":"Feature","properties":{"id":62,"name":"石邑縣"},"geometry":{"type":"Point","coordinates":[114.48124961154956,38.036460611684454]}},{"type":"Feature","properties":{"id":63,"name":"鹿泉縣"},"geometry":{"type":"Point","coordinates":[114.38057510045819,38.0288683219274]}},{"type":"Feature","properties":{"id":64,"name":"井陘縣"},"geometry":{"type":"Point","coordinates":[114.18565211089832,38.0124156612949]}},{"type":"Feature","properties":{"id":66,"name":"元氏縣"},"geometry":{"type":"Point","coordinates":[114.5337288779695,37.74824769776481]}},{"type":"Feature","properties":{"id":67,"name":"趙州"},"geometry":{"type":"Point","coordinates":[114.73668440830794,37.73787302281913]}},{"type":"Feature","properties":{"id":68,"name":"高邑縣"},"geometry":{"type":"Point","coordinates":[114.62944998891409,37.58165410577767]}},{"type":"Feature","properties":{"id":69,"name":"柏鄉縣"},"geometry":{"type":"Point","coordinates":[114.70616075334938,37.504271076856476]}},{"type":"Feature","properties":{"id":70,"name":"贊皇縣"},"geometry":{"type":"Point","coordinates":[114.47442195188776,37.602021455914716]}},{"type":"Feature","properties":{"id":71,"name":"臨城縣"},"geometry":{"type":"Point","coordinates":[114.51980580728666,37.41755780320537]}},{"type":"Feature","properties":{"id":74,"name":"堯山縣"},"geometry":{"type":"Point","coordinates":[114.66158015202835,37.377035927730546]}},{"type":"Feature","properties":{"id":80,"name":"邢州"},"geometry":{"type":"Point","coordinates":[114.53868227811627,37.04053297203153]}},{"type":"Feature","properties":{"id":81,"name":"青山縣"},"geometry":{"type":"Point","coordinates":[114.35112245093676,37.12127678021784]}},{"type":"Feature","properties":{"id":84,"name":"南和縣"},"geometry":{"type":"Point","coordinates":[114.73186488384079,36.96676319120811]}},{"type":"Feature","properties":{"id":79,"name":"永年縣"},"geometry":{"type":"Point","coordinates":[114.78367477186254,36.74985196632722]}},{"type":"Feature","properties":{"id":78,"name":"邯鄲縣"},"geometry":{"type":"Point","coordinates":[114.42622670721634,36.71492809176833]}},{"type":"Feature","properties":{"id":85,"name":"臨洺縣"},"geometry":{"type":"Point","coordinates":[114.45152921066882,36.84006538512271]}},{"type":"Feature","properties":{"id":86,"name":"武安縣"},"geometry":{"type":"Point","coordinates":[114.19609441391049,36.77205335455647]}},{"type":"Feature","properties":{"id":88,"name":"固鎮"},"geometry":{"type":"Point","coordinates":[114.02480048180759,36.66742546355841]}},{"type":"Feature","properties":{"id":90,"name":"儀州"},"geometry":{"type":"Point","coordinates":[113.45469090004889,37.05720143408714]}},{"type":"Feature","properties":{"id":91,"name":"和順縣"},"geometry":{"type":"Point","coordinates":[113.66112719805808,37.32148220464442]}},{"type":"Feature","properties":{"id":93,"name":"樂平縣"},"geometry":{"type":"Point","coordinates":[113.78723808828155,37.59406612318244]}},{"type":"Feature","properties":{"id":94,"name":"德化城"},"geometry":{"type":"Point","coordinates":[113.95752795278713,37.571468340587025]}},{"type":"Feature","properties":{"id":94,"name":"廣陽縣"},"geometry":{"type":"Point","coordinates":[113.70289641010662,37.787298477090204]}},{"type":"Feature","properties":{"id":96,"name":"榆次縣"},"geometry":{"type":"Point","coordinates":[112.75646229287217,37.70520447659484]}},{"type":"Feature","properties":{"id":97,"name":"壽陽縣"},"geometry":{"type":"Point","coordinates":[113.17254790520184,37.85947218659565]}},{"type":"Feature","properties":{"id":99,"name":"太原"},"geometry":{"type":"Point","coordinates":[112.43636554284633,37.734749749187245]}},{"type":"Feature","properties":{"id":100,"name":"古城"},"geometry":{"type":"Point","coordinates":[112.48817543086811,37.85978927785004]}},{"type":"Feature","properties":{"id":91,"name":"靈石縣"},"geometry":{"type":"Point","coordinates":[111.77890208012076,36.81756218161506]}},{"type":"Feature","properties":{"id":92,"name":"汾州"},"geometry":{"type":"Point","coordinates":[111.76123049040791,37.240792368003746]}},{"type":"Feature","properties":{"id":93,"name":"太谷縣"},"geometry":{"type":"Point","coordinates":[112.59219683395058,37.472562260998025]}},{"type":"Feature","properties":{"id":94,"name":"黎城縣"},"geometry":{"type":"Point","coordinates":[113.48220235221568,36.46759421686818]}},{"type":"Feature","properties":{"id":96,"name":"涉縣"},"geometry":{"type":"Point","coordinates":[113.79306168034617,36.523127850928084]}},{"type":"Feature","properties":{"id":97,"name":"黎城縣"},"geometry":{"type":"Point","coordinates":[113.28540510314082,36.288453758784215]}},{"type":"Feature","properties":{"id":98,"name":"潞州"},"geometry":{"type":"Point","coordinates":[113.18258858117517,36.15950269757032]}},{"type":"Feature","properties":{"id":100,"name":"襄垣縣"},"geometry":{"type":"Point","coordinates":[113.11109896824593,36.48115843000633]}},{"type":"Feature","properties":{"id":101,"name":"武鄉縣"},"geometry":{"type":"Point","coordinates":[112.99703688919031,36.727483202654795]}},{"type":"Feature","properties":{"id":102,"name":"磁州"},"geometry":{"type":"Point","coordinates":[114.34088096144437,36.426887336248086]}},{"type":"Feature","properties":{"id":105,"name":"臨漳縣"},"geometry":{"type":"Point","coordinates":[114.59069297965776,36.35187913290845]}},{"type":"Feature","properties":{"id":106,"name":"相州"},"geometry":{"type":"Point","coordinates":[114.38907620611576,36.125123110234874]}},{"type":"Feature","properties":{"id":107,"name":"昭義縣"},"geometry":{"type":"Point","coordinates":[114.16737808062734,36.52635532552287]}},{"type":"Feature","properties":{"id":110,"name":"成安縣"},"geometry":{"type":"Point","coordinates":[114.7047550587134,36.579911730385014]}},{"type":"Feature","properties":{"id":111,"name":"湯陰縣"},"geometry":{"type":"Point","coordinates":[114.40112501728363,35.92763617086147]}},{"type":"Feature","properties":{"id":112,"name":"黎陽縣"},"geometry":{"type":"Point","coordinates":[114.52321963711783,35.723785937016395]}},{"type":"Feature","properties":{"id":113,"name":"林慮縣"},"geometry":{"type":"Point","coordinates":[113.861338276964,36.008899605104446]}},{"type":"Feature","properties":{"id":114,"name":"滑州"},"geometry":{"type":"Point","coordinates":[114.57462789810066,35.63113184346777]}},{"type":"Feature","properties":{"id":117,"name":"汲縣"},"geometry":{"type":"Point","coordinates":[114.14649347460305,35.384947855140695]}},{"type":"Feature","properties":{"id":117,"name":"胙城縣"},"geometry":{"type":"Point","coordinates":[114.49590899847065,35.30501331599689]}},{"type":"Feature","properties":{"id":110,"name":"臨汾縣"},"geometry":{"type":"Point","coordinates":[111.51182009923349,36.075473182404586]}},{"type":"Feature","properties":{"id":112,"name":"神山縣"},"geometry":{"type":"Point","coordinates":[111.83633474668756,35.98192942027961]}},{"type":"Feature","properties":{"id":114,"name":"洪洞縣"},"geometry":{"type":"Point","coordinates":[111.67407742296054,36.23761152108816]}},{"type":"Feature","properties":{"id":115,"name":"翼城縣"},"geometry":{"type":"Point","coordinates":[111.67568393111624,35.70193709761975]}},{"type":"Feature","properties":{"id":116,"name":"沁水縣"},"geometry":{"type":"Point","coordinates":[112.16727542676445,35.69671857839628]}},{"type":"Feature","properties":{"id":117,"name":"冀氏縣"},"geometry":{"type":"Point","coordinates":[112.34559783204863,35.948122438752684]}},{"type":"Feature","properties":{"id":119,"name":"陽城縣"},"geometry":{"type":"Point","coordinates":[112.44520133770283,35.49685404881843]}},{"type":"Feature","properties":{"id":120,"name":"晉城縣"},"geometry":{"type":"Point","coordinates":[112.82433726245115,35.52496971706322]}},{"type":"Feature","properties":{"id":121,"name":"高平縣"},"geometry":{"type":"Point","coordinates":[112.92233425994968,35.7717019504646]}},{"type":"Feature","properties":{"id":123,"name":"長子縣"},"geometry":{"type":"Point","coordinates":[112.91751473548253,36.11117237880463]}},{"type":"Feature","properties":{"id":126,"name":"壺關縣"},"geometry":{"type":"Point","coordinates":[113.29825716838654,36.082614318907694]}},{"type":"Feature","properties":{"id":128,"name":"太平縣"},"geometry":{"type":"Point","coordinates":[112.98177506171106,36.36708060522071]}},{"type":"Feature","properties":{"id":129,"name":"屯留縣"},"geometry":{"type":"Point","coordinates":[112.93117005480609,36.282302636902955]}},{"type":"Feature","properties":{"id":140,"name":"榆社縣"},"geometry":{"type":"Point","coordinates":[113.01149546259178,36.99836466513988]}},{"type":"Feature","properties":{"id":141,"name":"沁州"},"geometry":{"type":"Point","coordinates":[112.37531823292935,36.38906896873078]}},{"type":"Feature","properties":{"id":200,"name":"離石縣"},"geometry":{"type":"Point","coordinates":[111.08681844267795,37.45531458262644]}},{"type":"Feature","properties":{"id":201,"name":"定胡縣"},"geometry":{"type":"Point","coordinates":[110.7562711214968,37.401720000650265]}},{"type":"Feature","properties":{"id":202,"name":"綏德縣"},"geometry":{"type":"Point","coordinates":[110.21328387463774,37.54262796635405]}},{"type":"Feature","properties":{"id":204,"name":"平夷縣"},"geometry":{"type":"Point","coordinates":[111.19524333254343,37.30524460627386]}},{"type":"Feature","properties":{"id":206,"name":"石樓縣"},"geometry":{"type":"Point","coordinates":[110.81446202171642,36.97265634939828]}},{"type":"Feature","properties":{"id":210,"name":"霍邑縣"},"geometry":{"type":"Point","coordinates":[111.70563600596816,36.564109285051224]}},{"type":"Feature","properties":{"id":211,"name":"汾西縣"},"geometry":{"type":"Point","coordinates":[111.56988919425338,36.665681083284724]}},{"type":"Feature","properties":{"id":212,"name":"綏德縣"},"geometry":{"type":"Point","coordinates":[110.09968219957986,37.150137213562225]}},{"type":"Feature","properties":{"id":214,"name":"永和縣"},"geometry":{"type":"Point","coordinates":[110.57211178159288,36.73147730958036]}},{"type":"Feature","properties":{"id":216,"name":"延長綫"},"geometry":{"type":"Point","coordinates":[110.10274992413842,36.57211676643951]}},{"type":"Feature","properties":{"id":217,"name":"大寧縣"},"geometry":{"type":"Point","coordinates":[110.70402393760949,36.471655238596]}},{"type":"Feature","properties":{"id":217,"name":"隰川縣"},"geometry":{"type":"Point","coordinates":[110.86814720149063,36.67060237499032]}},{"type":"Feature","properties":{"id":218,"name":"宜川縣"},"geometry":{"type":"Point","coordinates":[110.0628695048776,36.19796349640537]}},{"type":"Feature","properties":{"id":220,"name":"慈州"},"geometry":{"type":"Point","coordinates":[110.5897511978044,36.08400327848543]}},{"type":"Feature","properties":{"id":220,"name":"昌寧縣"},"geometry":{"type":"Point","coordinates":[110.70862552444729,36.00400859704882]}},{"type":"Feature","properties":{"id":221,"name":"故關店"},"geometry":{"type":"Point","coordinates":[111.41784509582149,35.84501895540638]}},{"type":"Feature","properties":{"id":225,"name":"太平縣"},"geometry":{"type":"Point","coordinates":[111.2115406192606,35.80584360948087]}},{"type":"Feature","properties":{"id":226,"name":"絳縣"},"geometry":{"type":"Point","coordinates":[111.45542472166343,35.413653392773824]}},{"type":"Feature","properties":{"id":230,"name":"王屋縣"},"geometry":{"type":"Point","coordinates":[112.20164872052486,35.1243676527157]}},{"type":"Feature","properties":{"id":240,"name":"濟源縣"},"geometry":{"type":"Point","coordinates":[112.43786351153135,35.115585302880554]}},{"type":"Feature","properties":{"id":241,"name":"河陽縣"},"geometry":{"type":"Point","coordinates":[112.76457617701433,34.9076698894198]}},{"type":"Feature","properties":{"id":243,"name":"河内縣"},"geometry":{"type":"Point","coordinates":[112.86504415630607,35.133776262531114]}},{"type":"Feature","properties":{"id":246,"name":"溫縣"},"geometry":{"type":"Point","coordinates":[113.0606115969121,34.926535959342544]}},{"type":"Feature","properties":{"id":247,"name":"唔得閑"},"geometry":{"type":"Point","coordinates":[113.09052191135773,35.06852088144187]}},{"type":"Feature","properties":{"id":278,"name":"河南府"},"geometry":{"type":"Point","coordinates":[112.34506484363598,34.65949349368693]}},{"type":"Feature","properties":{"id":279,"name":"偃師縣"},"geometry":{"type":"Point","coordinates":[112.74233517396506,34.66264761551664]}},{"type":"Feature","properties":{"id":280,"name":"石橋店"},"geometry":{"type":"Point","coordinates":[112.61349074250697,34.65381577186376]}},{"type":"Feature","properties":{"id":290,"name":"澠池縣"},"geometry":{"type":"Point","coordinates":[111.62261571010319,34.7672962707446]}},{"type":"Feature","properties":{"id":291,"name":"新安縣"},"geometry":{"type":"Point","coordinates":[112.04289397462122,34.69544336459428]}},{"type":"Feature","properties":{"id":260,"name":"酸棗縣"},"geometry":{"type":"Point","coordinates":[114.18263185419296,35.20211283480673]}},{"type":"Feature","properties":{"id":261,"name":"封邱縣"},"geometry":{"type":"Point","coordinates":[114.42728288773542,35.06601001607686]}},{"type":"Feature","properties":{"id":263,"name":"陽武縣"},"geometry":{"type":"Point","coordinates":[114.00163610523995,35.02896578161554]}},{"type":"Feature","properties":{"id":265,"name":"開封縣"},"geometry":{"type":"Point","coordinates":[114.39583871101047,34.80382902936578]}},{"type":"Feature","properties":{"id":266,"name":"中牟縣"},"geometry":{"type":"Point","coordinates":[114.04228345564037,34.72948673841835]}},{"type":"Feature","properties":{"id":267,"name":"管城縣"},"geometry":{"type":"Point","coordinates":[113.71480385901774,34.796271855215444]}},{"type":"Feature","properties":{"id":290,"name":"滎陽縣"},"geometry":{"type":"Point","coordinates":[113.42030230139923,34.79438245343419]}},{"type":"Feature","properties":{"id":293,"name":"鞏縣"},"geometry":{"type":"Point","coordinates":[113.01536265967384,34.7572154211712]}},{"type":"Feature","properties":{"id":294,"name":"獲嘉縣"},"geometry":{"type":"Point","coordinates":[113.69409671824766,35.2829139928316]}},{"type":"Feature","properties":{"id":297,"name":"新鄉縣"},"geometry":{"type":"Point","coordinates":[113.88582950315553,35.3154622277728]}},{"type":"Feature","properties":{"id":299,"name":"壽安縣"},"geometry":{"type":"Point","coordinates":[112.03829238778332,34.527543872487165]}},{"type":"Feature","properties":{"id":300,"name":"福昌縣"},"geometry":{"type":"Point","coordinates":[111.8887408155552,34.476349180211564]}},{"type":"Feature","properties":{"id":301,"name":"永寧縣"},"geometry":{"type":"Point","coordinates":[111.60190856933302,34.50795455606403]}},{"type":"Feature","properties":{"id":305,"name":"湖城縣"},"geometry":{"type":"Point","coordinates":[110.54737825233978,34.591966520423206]}},{"type":"Feature","properties":{"id":308,"name":"弘農縣"},"geometry":{"type":"Point","coordinates":[110.7130353785002,34.57049784862056]}},{"type":"Feature","properties":{"id":310,"name":"華陰縣"},"geometry":{"type":"Point","coordinates":[110.02663200853006,34.624159128347166]}},{"type":"Feature","properties":{"id":320,"name":"靈寶縣"},"geometry":{"type":"Point","coordinates":[110.77899145650846,34.749653976193336]}},{"type":"Feature","properties":{"id":321,"name":"虞鄉縣"},"geometry":{"type":"Point","coordinates":[110.50366317738079,34.904525122861244]}},{"type":"Feature","properties":{"id":325,"name":"陝州"},"geometry":{"type":"Point","coordinates":[110.96919037913706,34.795012258838575]}},{"type":"Feature","properties":{"id":236,"name":"安邑縣"},"geometry":{"type":"Point","coordinates":[110.86833893427557,35.11433060418732]}},{"type":"Feature","properties":{"id":700,"name":"順州"},"geometry":{"type":"Point","coordinates":[116.64179655342122,40.1518717779937]}},{"type":"Feature","properties":{"id":701,"name":"檀州"},"geometry":{"type":"Point","coordinates":[116.80131823046457,40.40580348530014]}},{"type":"Feature","properties":{"id":703,"name":"薊州"},"geometry":{"type":"Point","coordinates":[117.41793086672826,40.02748485979759]}},{"type":"Feature","properties":{"id":704,"name":"平州"},"geometry":{"type":"Point","coordinates":[118.86282913379395,39.867561332408194]}},{"type":"Feature","properties":{"id":704,"name":"綏中"},"geometry":{"type":"Point","coordinates":[120.36831496089052,40.341533153558466]}},{"type":"Feature","properties":{"id":706,"name":"興城"},"geometry":{"type":"Point","coordinates":[120.70729852460764,40.59242303360047]}},{"type":"Feature","properties":{"id":707,"name":"凌南"},"geometry":{"type":"Point","coordinates":[119.94803669637245,40.82206522211643]}},{"type":"Feature","properties":{"id":708,"name":"長安"},"geometry":{"type":"Point","coordinates":[108.83098636184455,34.296445199627115]}},{"type":"Feature","properties":{"id":709,"name":"咸陽"},"geometry":{"type":"Point","coordinates":[108.6568929931482,34.369276131350894]}},{"type":"Feature","properties":{"id":710,"name":"涇陽"},"geometry":{"type":"Point","coordinates":[108.85936281401092,34.52233103647505]}},{"type":"Feature","properties":{"id":711,"name":"昭應縣"},"geometry":{"type":"Point","coordinates":[109.1515635782105,34.45089815165178]}},{"type":"Feature","properties":{"id":711,"name":"三原縣"},"geometry":{"type":"Point","coordinates":[109.07026887740959,34.682673487229316]}},{"type":"Feature","properties":{"id":712,"name":"下邽縣"},"geometry":{"type":"Point","coordinates":[109.46447148318016,34.676366648388694]}},{"type":"Feature","properties":{"id":713,"name":"渭南縣"},"geometry":{"type":"Point","coordinates":[109.4506667226668,34.569076932069564]}},{"type":"Feature","properties":{"id":714,"name":"高陵縣"},"geometry":{"type":"Point","coordinates":[109.0825397756437,34.541285239784045]}},{"type":"Feature","properties":{"id":715,"name":"櫟陽縣"},"geometry":{"type":"Point","coordinates":[109.19144399747137,34.59433404906935]}},{"type":"Feature","properties":{"id":716,"name":"華州"},"geometry":{"type":"Point","coordinates":[109.7359651066097,34.60695972894431]}},{"type":"Feature","properties":{"id":717,"name":"同州"},"geometry":{"type":"Point","coordinates":[109.81725980741064,34.855293838159504]}},{"type":"Feature","properties":{"id":719,"name":"蒲城"},"geometry":{"type":"Point","coordinates":[109.55803708221521,34.91820397980088]}},{"type":"Feature","properties":{"id":720,"name":"合陽縣"},"geometry":{"type":"Point","coordinates":[110.03813597562453,35.19318218855449]}},{"type":"Feature","properties":{"id":721,"name":"朝邑縣"},"geometry":{"type":"Point","coordinates":[110.00822566117895,34.85812582931744]}},{"type":"Feature","properties":{"id":723,"name":"蒲州"},"geometry":{"type":"Point","coordinates":[110.25210976358176,34.87574491686704]}},{"type":"Feature","properties":{"id":725,"name":"韓城縣"},"geometry":{"type":"Point","coordinates":[110.36101398540937,35.425059583685446]}},{"type":"Feature","properties":{"id":730,"name":"平泉縣"},"geometry":{"type":"Point","coordinates":[118.69602161092419,41.00130174881916]}},{"type":"Feature","properties":{"id":731,"name":"凡城"},"geometry":{"type":"Point","coordinates":[119.5304426908432,41.070721009071725]}},{"type":"Feature","properties":{"id":732,"name":"錦州"},"geometry":{"type":"Point","coordinates":[121.29131658743705,41.14699762633246]}},{"type":"Feature","properties":{"id":733,"name":"建平"},"geometry":{"type":"Point","coordinates":[119.6715580205354,41.868343160125676]}},{"type":"Feature","properties":{"id":734,"name":"赤峰"},"geometry":{"type":"Point","coordinates":[118.84327238973341,42.33267629373848]}},{"type":"Feature","properties":{"id":735,"name":"營州"},"geometry":{"type":"Point","coordinates":[120.32191562694288,41.60967652371052]}},{"type":"Feature","properties":{"id":736,"name":"燕州"},"geometry":{"type":"Point","coordinates":[121.26063934185179,41.554604369377856]}},{"type":"Feature","properties":{"id":737,"name":"阜新"},"geometry":{"type":"Point","coordinates":[121.71159485195511,42.15667576109202]}},{"type":"Feature","properties":{"id":738,"name":"遼東城"},"geometry":{"type":"Point","coordinates":[123.26539734084842,41.37184248360888]}},{"type":"Feature","properties":{"id":740,"name":"遼中"},"geometry":{"type":"Point","coordinates":[122.78069686060132,41.548864985678655]}},{"type":"Feature","properties":{"id":834,"name":"樂亭"},"geometry":{"type":"Point","coordinates":[118.8877543958321,39.439026014932196]}},{"type":"Feature","properties":{"id":333,"name":"榆多勒城"},"geometry":{"type":"Point","coordinates":[108.02592685160607,39.09242531113169]}},{"type":"Feature","properties":{"id":334,"name":"定遠軍"},"geometry":{"type":"Point","coordinates":[106.68485161179666,38.8944294604933]}},{"type":"Feature","properties":{"id":335,"name":"懷遠縣"},"geometry":{"type":"Point","coordinates":[106.31075060448131,38.52257399035521]}},{"type":"Feature","properties":{"id":336,"name":"九原縣"},"geometry":{"type":"Point","coordinates":[107.76012091856394,41.0301995811108]}},{"type":"Feature","properties":{"id":337,"name":"西受降城"},"geometry":{"type":"Point","coordinates":[107.55216868274917,41.27235857959186]}},{"type":"Feature","properties":{"id":338,"name":"天德軍"},"geometry":{"type":"Point","coordinates":[108.93885673468648,41.09510574006204]}},{"type":"Feature","properties":{"id":339,"name":"沃野鎮"},"geometry":{"type":"Point","coordinates":[108.71921391119211,41.37315186643956]}},{"type":"Feature","properties":{"id":340,"name":"安北都護府"},"geometry":{"type":"Point","coordinates":[109.33421381697632,40.52990495953507]}},{"type":"Feature","properties":{"id":341,"name":"固陽"},"geometry":{"type":"Point","coordinates":[110.06139050354011,41.11080802127983]}},{"type":"Feature","properties":{"id":342,"name":"黑沙城"},"geometry":{"type":"Point","coordinates":[109.42267972891797,41.809321309331885]}},{"type":"Feature","properties":{"id":345,"name":"靈州"},"geometry":{"type":"Point","coordinates":[106.16209982804862,37.99916948119643]}},{"type":"Feature","properties":{"id":347,"name":"鹽州"},"geometry":{"type":"Point","coordinates":[107.36052520160314,37.77811974367262]}},{"type":"Feature","properties":{"id":352,"name":"宥州"},"geometry":{"type":"Point","coordinates":[108.36610051504542,37.57824419968142]}},{"type":"Feature","properties":{"id":356,"name":"環州"},"geometry":{"type":"Point","coordinates":[106.58453329305634,37.46899435703483]}},{"type":"Feature","properties":{"id":358,"name":"夏州"},"geometry":{"type":"Point","coordinates":[108.71047562238867,38.020876216504185]}},{"type":"Feature","properties":{"id":361,"name":"儒林縣"},"geometry":{"type":"Point","coordinates":[109.76093863761588,37.99184124625234]}},{"type":"Feature","properties":{"id":364,"name":"麟州"},"geometry":{"type":"Point","coordinates":[110.3391985001924,38.92049558677781]}},{"type":"Feature","properties":{"id":550,"name":"鳴沙縣"},"geometry":{"type":"Point","coordinates":[105.59297013868532,37.451695145776554]}},{"type":"Feature","properties":{"id":551,"name":"原州"},"geometry":{"type":"Point","coordinates":[106.25393263318846,36.018531685896164]}},{"type":"Feature","properties":{"id":553,"name":"慶州"},"geometry":{"type":"Point","coordinates":[107.84406543557171,35.99577785468524]}},{"type":"Feature","properties":{"id":559,"name":"涇州"},"geometry":{"type":"Point","coordinates":[107.28365032636813,35.334763044939315]}},{"type":"Feature","properties":{"id":556,"name":"隴州"},"geometry":{"type":"Point","coordinates":[106.84746107648363,34.895791554803196]}},{"type":"Feature","properties":{"id":559,"name":"眉縣"},"geometry":{"type":"Point","coordinates":[107.72775576657422,34.28105643812676]}},{"type":"Feature","properties":{"id":560,"name":"奉天縣"},"geometry":{"type":"Point","coordinates":[107.89128466242508,34.38312100700048]}},{"type":"Feature","properties":{"id":561,"name":"鳳翔府"},"geometry":{"type":"Point","coordinates":[107.38548598456075,34.51953601261983]}},{"type":"Feature","properties":{"id":562,"name":"寶鷄縣"},"geometry":{"type":"Point","coordinates":[107.21435109355401,34.342310081074366]}},{"type":"Feature","properties":{"id":570,"name":"秦州"},"geometry":{"type":"Point","coordinates":[105.67849148364441,34.61056057857038]}},{"type":"Feature","properties":{"id":374,"name":"鄜州"},"geometry":{"type":"Point","coordinates":[109.21668099918685,35.99008615429716]}},{"type":"Feature","properties":{"id":777,"name":"甘泉縣"},"geometry":{"type":"Point","coordinates":[109.25448708008861,36.302419883827376]}},{"type":"Feature","properties":{"id":400,"name":"涼州"},"geometry":{"type":"Point","coordinates":[102.73123209674642,37.99525211827375]}},{"type":"Feature","properties":{"id":401,"name":"肅州"},"geometry":{"type":"Point","coordinates":[98.28826456655764,39.870724523208416]}}]}