{"type":"FeatureCollection","features":[{"type":"Feature","properties":{"routelevel":1},"geometry":{"type":"LineString","coordinates":[[114.49925589045628,38.15293894108337],[114.85756670948194,38.41401974574726],[115.03737662231741,38.52237868321983],[115.15923324094338,38.71576998380987],[115.23729763725065,38.84045303342393],[115.33059411088618,38.95307359306653],[115.4791068648366,39.32669325013084],[115.69806797643018,39.40323884280168],[115.8332526627184,39.47235208186705],[115.99699749399703,39.541396733261905],[116.08458193863446,39.67341836068072],[116.1417022286154,39.74372693585472],[116.285573959007,39.94762382711207],[116.64697879374118,39.902146033036765],[117.0708589456413,39.951972382084946],[117.38930456228496,40.02126735706492],[117.73535831908603,39.89064249514681],[118.16376049394297,39.81097779685684],[118.87824012112104,39.86909099111373],[119.83786099280077,39.98954627662604],[119.9939897854153,40.14545726560589],[120.36876235467899,40.33948108428243],[119.94353352926547,40.822465378650485],[119.7309191165587,41.031057722952184],[120.32243145280559,41.608762364614755],[121.25158816982862,41.56034106298421],[121.54099763906531,41.64149734837312],[121.79994295364551,41.65287953382051],[122.16170479019135,41.63865148781615],[122.65103527436129,41.61730352784625],[122.79764401864567,41.548942558033474],[123.27459843998642,41.3691507832429]]}},{"type":"Feature","properties":{"routelevel":1},"geometry":{"type":"LineString","coordinates":[[112.4384034281867,37.73573791204274],[112.48957368796083,37.86133165289008],[112.51622982328527,37.97998975373672],[112.60571827758872,38.19428864040047],[112.61523832591888,38.2571101684285],[112.6688679315115,38.42623335764321],[112.64237046365895,38.662453523076216],[112.70139476330591,38.760510253004334],[112.74328297595859,38.8836330057561],[112.79849925627352,38.99322550224258],[112.91993937278502,39.08256030772555],[112.75089901462273,39.14843754573201],[112.74709099529066,39.192721129011595],[112.32535285426503,39.288757386666624],[112.1187678055007,39.76367126066534],[111.68465360164555,39.934698488108126],[111.62372529233255,40.183894370445024],[111.75890997862075,40.56393361824923],[111.54756490569135,40.71082659709799],[111.28671558144518,40.46695201976659],[111.13820282749474,40.307424403828016],[111.12677876949856,40.25658639796746],[111.62705730924822,40.154795724358195]]}},{"type":"Feature","properties":{"routelevel":1},"geometry":{"type":"LineString","coordinates":[[110.03715033602901,40.57456637765134],[110.477511473382,40.51039395939203],[111.13629881782869,40.30452040483836]]}},{"type":"Feature","properties":{"routelevel":1},"geometry":{"type":"LineString","coordinates":[[115.03951863319243,38.52405449794943],[114.85292568592139,38.0652974987804],[114.73579934131075,37.73451440647556]]}},{"type":"Feature","properties":{"routelevel":1},"geometry":{"type":"LineString","coordinates":[[114.73579934131075,37.73451440647556],[114.63015655499588,37.58026111172968],[114.70917295613616,37.503266059496696],[114.6615727144854,37.37779047208381],[114.56066020218574,37.276349559538936],[114.53971609585943,37.04038851185785],[114.48449981554454,36.941537159001435],[114.45213165122203,36.84408113377769],[114.42737952556361,36.717507641022316],[114.38929933224297,36.57237799949648],[114.34360310025826,36.425443098189504],[114.43118754489568,36.32733169395422],[114.42166749656553,36.253666962341626],[114.38929933224297,36.12151049715083],[114.41024343856935,35.99067177096125],[114.40167539507222,35.92439995498774],[114.40167539507222,35.824116124626165],[114.37501925974779,35.644059282259825],[114.36073918725258,35.55271651113251],[114.14177807565906,35.37903353359722],[114.0027853700388,35.332447653890085],[113.89425681907504,35.31846665026281],[113.69243179447574,35.27961784545938],[113.39921430590697,35.08197816146002],[113.06030058535343,34.92601853730357],[112.76633070714752,34.90943474754263]]}},{"type":"Feature","properties":{"routelevel":1},"geometry":{"type":"LineString","coordinates":[[114.49925589045628,38.15293894108337],[114.58255631334534,38.1132511529606],[114.58065230367932,38.072792330766134],[114.624444525998,38.015812352367234],[114.67014075798275,37.89195324790424],[114.73579934131075,37.73451440647556]]}},{"type":"Feature","properties":{"routelevel":1},"geometry":{"type":"LineString","coordinates":[[114.49925589045628,38.15293894108337],[114.48164380104569,38.036810134881414],[114.19794636080708,38.01056196648431],[114.0589536551868,38.00831168598222],[113.91424892056843,37.96103984182945],[113.83285250734566,37.86640482126225],[113.7005238355565,37.787449340934614],[113.17358916048241,37.858700983653364],[113.07077263851671,37.79177527962949],[112.75851505328764,37.7029487779389],[112.4384034281867,37.73573791204274]]}},{"type":"Feature","properties":{"routelevel":1},"geometry":{"type":"LineString","coordinates":[[112.4384034281867,37.73573791204274],[112.4667255719684,37.689012922935746],[112.50575777012207,37.55554832792375],[112.49528571695889,37.48985928964605],[112.18398013656287,37.17344428136218],[111.88124259966393,37.006755455555364],[111.82602631934903,36.930693718319574],[111.79461015985952,36.87207440518144],[111.7736660535332,36.818745054450254],[111.72987383121448,36.73410371659052],[111.69750566689196,36.65166031555724],[111.70512170555614,36.55995290553529],[111.70512170555614,36.44363374781781],[111.70512170555614,36.35167946156081],[111.67465755089964,36.2365837005761],[111.59849716425842,36.161296140841245],[111.5094847123724,36.08066275149893],[111.44236837164387,35.95349704678323],[111.41952025565149,35.84399011764806],[111.21198320205414,35.803851105423455],[110.98540605179645,35.73433178619845],[110.83308527851398,35.62568299481098],[110.54557981894396,35.577476219203554],[110.52273170295092,35.54826282307243],[110.55224385277441,35.52347256175862],[110.44561931147668,35.418804352311156],[110.36469890067035,35.35283228303578],[110.2637863883707,35.19894710117725],[110.19333803072753,35.0658111763768],[110.11551163562854,34.85925513945577],[110.04954182363834,34.850158538307674]]}},{"type":"Feature","properties":{"routelevel":1},"geometry":{"type":"LineString","coordinates":[[110.11646364046155,34.86003631144194],[110.50678562199789,34.905331590655734],[110.6610104049464,34.96464622470248],[110.87330748270888,35.11508126315878],[111.04688969726348,35.339566680221054],[111.0570444154823,35.3954615830416],[111.09702861846897,35.5660115571597],[111.33249114716813,35.694974969237194],[111.38580341781702,35.7634986769134],[111.42071026169424,35.8432827146783]]}},{"type":"Feature","properties":{"routelevel":1},"geometry":{"type":"LineString","coordinates":[[112.49766572904333,37.489229803725905],[112.4910016952122,37.28613372052583],[112.49956973870934,37.20049499405843],[112.51384981120458,37.085146132195945],[112.46910558405285,37.02284544194171],[112.63570642983055,36.83792250805483],[112.78517118861399,36.663243350271884],[112.86466359217079,36.4399321365822],[112.97890417213264,36.36330746714485],[113.07077263851865,36.164882904302516],[113.17815878368279,36.157350485264786],[113.06886862885258,36.00023549099687],[112.92606790390026,35.771931259832925],[112.93201793410665,35.679961437168544],[112.82801140609972,35.52979997109885],[112.82039536743561,35.39255134572251],[112.87370763808447,35.32655780358157],[112.90512379757395,35.29626036682523],[112.87085162358542,35.26595158390367],[112.8651395945873,35.13136824580728],[112.76633070714752,34.90943474754263]]}},{"type":"Feature","properties":{"routelevel":1},"geometry":{"type":"LineString","coordinates":[[112.4384034281867,37.73573791204274],[112.31678481077049,37.585102096002714],[112.23491239513118,37.566993944309],[112.14732795049373,37.52623450513406],[111.9969111868773,37.39474700152846],[111.86553451992117,37.326645537464486],[111.76462200762153,37.23877919488143],[111.78937413327995,37.128043057525126],[111.8046062106082,37.02626570857183],[111.82935833626658,36.933483990824385]]}},{"type":"Feature","properties":{"routelevel":1},"geometry":{"type":"LineString","coordinates":[[109.94391276447946,38.00881175428497],[110.14002576008063,37.802996461597225],[110.21428213705585,37.54076704666036],[110.10194556676,37.14872359679262],[110.10004155709399,37.09862521720346],[110.21832815759616,36.86401390110383]]}},{"type":"Feature","properties":{"routelevel":1},"geometry":{"type":"LineString","coordinates":[[110.0248331752859,34.62293683186254],[110.39992307949399,34.58218934143515],[110.55033984311044,34.586891995227624],[110.71218066472305,34.57121544775462],[110.77977300786713,34.74818824521022],[110.96826996480424,34.7948480528581],[111.20722317789111,34.74975268842291],[111.43380032814879,34.67697474144684],[111.60373319084205,34.50632231339416],[111.76033798587308,34.443733962575436],[111.89361866249523,34.473562482948054],[112.02499532945137,34.522207185364174],[112.34582095817755,34.65230963076407]]}},{"type":"Feature","properties":{"routelevel":1},"geometry":{"type":"LineString","coordinates":[[110.54938783827744,34.58610823807591],[110.7826290223662,34.74779712144304]]}},{"type":"Feature","properties":{"routelevel":1},"geometry":{"type":"LineString","coordinates":[[112.76633070714752,34.90943474754263],[112.74090296387897,34.82285732356201],[112.61714233558696,34.65309276299398],[112.35629301134072,34.65622521792475]]}},{"type":"Feature","properties":{"routelevel":1},"geometry":{"type":"LineString","coordinates":[[112.61904634525297,34.65309276299398],[112.74280697354499,34.66875385374236],[113.01698436545344,34.75796552911314],[113.19643727647683,34.83282111592374],[113.41777840015287,34.79198145200716],[113.71718392013624,34.79849629603046],[114.0418175681945,34.72863020503594],[114.39691537090923,34.80136268685495],[114.40833942890542,34.91385420330412],[114.42642752073273,35.06983699020318],[114.49592387354285,35.30247615078516],[114.49782788320891,35.498028759124246],[114.57517827589146,35.630841673711366],[114.59636038342605,35.688080695497526],[114.52543602336641,35.72054944988629],[114.40405540715693,35.826367474147624]]}},{"type":"Feature","properties":{"routelevel":1},"geometry":{"type":"LineString","coordinates":[[118.27562106182246,40.31770839611395],[118.97820062858784,40.56839332508131],[119.53036343173676,41.07269715990056]]}},{"type":"Feature","properties":{"routelevel":1},"geometry":{"type":"LineString","coordinates":[[110.04954182363834,34.850158538307674],[109.81646311746255,34.851475563648336],[109.67794641425883,34.75649901032432],[109.57084587054459,34.71190440991437],[109.46660134132941,34.67902983588032],[109.29666847863614,34.64085547657975],[109.18421290773618,34.59325974804287],[109.08318139483242,34.54622484008643],[109.06533130421342,34.463555417322326],[109.06140428427723,34.364597576983634],[108.98143587830397,34.35781939645035],[108.83078111347947,34.3029844060411],[108.86148326934423,34.52152086486003],[109.00642600517082,34.646142205909676],[109.06854432052509,34.68666259725822],[109.23133714697073,34.73479148714111],[109.43125816190398,34.86026415187413],[109.56263482886017,34.917659817088456],[109.70829156831151,34.8743239399868],[109.81967613377435,34.85538167658015]]}},{"type":"Feature","properties":{"routelevel":1},"geometry":{"type":"LineString","coordinates":[[112.78096154224697,36.671774381690184],[112.70545565892843,36.52861447762182],[112.85164790109833,36.32696817717066],[112.93197330888398,36.28295014624787],[113.07013301027533,36.16371802479043]]}},{"type":"Feature","properties":{"routelevel":1},"geometry":{"type":"LineString","coordinates":[[110.04954182363834,34.850158538307674],[110.25210976358174,34.875115728746565],[110.4169999586025,34.8732281354916],[110.83881208539978,34.92480675013824],[111.07502687640631,35.086879236742696],[111.22994696661188,35.367543436472886],[111.34038505071884,35.639756106599236]]}},{"type":"Feature","properties":{"routelevel":1},"geometry":{"type":"LineString","coordinates":[[110.67238802809987,35.59736166836597],[110.39936054239105,34.87826162119196]]}},{"type":"Feature","properties":{"routelevel":1},"geometry":{"type":"LineString","coordinates":[[111.13747717122959,40.261100403283486],[110.96688958571907,40.16462031307992],[110.69309516887064,39.780239771673784],[110.54354359664248,39.240619449009834],[110.39284162770495,39.03807604576551],[110.34137703997115,38.922644849892066],[110.32036663500995,38.72554126844197],[110.31576504817217,38.5314219132254],[110.03506825106703,38.28261640590869],[109.75897304079975,37.98763534344749],[110.01436111029703,37.869672582230756],[110.22603410483532,37.53837114584175]]}},{"type":"Feature","properties":{"routelevel":1},"geometry":{"type":"LineString","coordinates":[[109.05608065132736,35.12076073075323],[109.03767430397623,35.31248961502082],[109.10669810654306,35.67963622035202],[109.27925761296012,35.795424688522026],[109.22173777748779,35.98927203663772],[109.24474571167673,36.29769734526548],[109.41270363125605,36.59013054197556],[109.53924726929523,36.64922322882161],[110.11674641743774,36.850167434283634],[110.09373848324879,37.147844852950236],[110.21430694146011,37.542447070699666]]}},{"type":"Feature","properties":{"routelevel":1},"geometry":{"type":"LineString","coordinates":[[110.10157082567284,36.57300400920351],[109.78083057827915,36.72302534076685]]}},{"type":"Feature","properties":{"routelevel":1},"geometry":{"type":"LineString","coordinates":[[108.93989058367353,41.09528944036979],[108.8317532929855,41.119559807504245],[108.72821758913523,41.050192103166744],[108.64768981947394,40.90428164912617],[108.25425414484305,39.9973807976086],[108.02685906194228,39.094049323152554],[108.70290886152725,38.00757954337822]]}},{"type":"Feature","properties":{"routelevel":1},"geometry":{"type":"LineString","coordinates":[[106.46883845178101,41.929138353810096],[107.28331932206963,41.59447900765214],[107.76648594003754,41.034574222112376],[107.83090815576645,40.709232547526256],[108.24965255800522,39.983278720918776]]}},{"type":"Feature","properties":{"routelevel":1},"geometry":{"type":"LineString","coordinates":[[108.69370568785199,38.00214075400344],[108.59247077742062,37.71330810200433],[108.81104615221561,37.59672920644611],[108.82715170614783,37.49274710538074],[108.86396440085018,37.40324310348683],[108.92378502974142,37.278856144321324],[109.0158167664972,37.190929604245596],[109.11014929667186,37.1267518752106],[109.25279848864331,36.72947965545109],[109.40235006087143,36.57996945140886]]}},{"type":"Feature","properties":{"routelevel":1},"geometry":{"type":"LineString","coordinates":[[109.06125743652011,35.1108800709311],[108.93298820341701,34.84270603131507],[108.85936281401239,34.53054505430799]]}},{"type":"Feature","properties":{"routelevel":1},"geometry":{"type":"LineString","coordinates":[[108.93989058367367,34.844594325096374],[109.07103580855066,34.68961045513935]]}},{"type":"Feature","properties":{"routelevel":1},"geometry":{"type":"LineString","coordinates":[[107.91603751226566,34.88235110137919],[108.9283866165792,34.8521470669758]]}},{"type":"Feature","properties":{"routelevel":1},"geometry":{"type":"LineString","coordinates":[[107.90683433859009,34.88423848514496],[108.55795887613719,34.59117732921457],[108.86396440085018,34.52296291276212]]}},{"type":"Feature","properties":{"routelevel":1},"geometry":{"type":"LineString","coordinates":[[107.8976311649145,34.88423848514496],[107.94364703329238,34.69528572379766],[108.01727242269702,34.58928323972806],[108.08859701868276,34.46228093720128],[108.33938350134224,34.29137634815607],[108.65689299314964,34.37307427018189],[108.08629622526385,34.473662170946504]]}},{"type":"Feature","properties":{"routelevel":1},"geometry":{"type":"LineString","coordinates":[[107.88842799123901,34.88990037636406],[107.67445420328184,35.617003062360645],[107.61003198755279,35.85605296177923],[107.8493145031178,36.001371730622914],[107.4443748613924,36.4172098470301],[107.06244315385594,36.94124804173414],[106.7495352488863,37.282517524357026],[106.5784137383561,37.47836967727426],[106.41131861630885,37.72604781189301],[106.16168253035887,37.99216854196919],[106.07195158702204,37.607666252102874],[105.92009922137503,37.521949704571135],[105.59568734931091,37.44892179059818],[105.64170321768884,37.33192871891148],[106.00062699103636,36.803204715781334],[106.2859253749792,35.96041143071038],[106.28132378814139,35.58707139494554],[106.35034759070822,35.57210136343607],[107.00377292167416,35.42130978129556],[107.78604268409826,35.20728276015727]]}},{"type":"Feature","properties":{"routelevel":1},"geometry":{"type":"LineString","coordinates":[[108.60195225100878,34.08408239070208],[108.2050746855148,34.15630577729082],[107.73053604286785,34.276880910612434],[107.88583959864322,34.381619452877075],[108.10153898166458,34.326060183966575],[108.34657348077683,34.29042590445833]]}},{"type":"Feature","properties":{"routelevel":1},"geometry":{"type":"LineString","coordinates":[[107.88066281345068,34.381619452877075],[107.60456760318337,34.44852654269511],[107.3836914349695,34.52106726952099],[107.20940633348826,34.347433491472174]]}},{"type":"Feature","properties":{"routelevel":1},"geometry":{"type":"LineString","coordinates":[[107.38714262509785,34.52248900599621],[107.11104741483054,34.65318488987418],[106.85048256014073,34.89202348194188]]}},{"type":"Feature","properties":{"routelevel":1},"geometry":{"type":"LineString","coordinates":[[106.83667779962738,34.895561877443754],[106.57093615974509,34.91678903132908],[106.12228144306066,34.753907374185914]]}},{"type":"Feature","properties":{"routelevel":1},"geometry":{"type":"LineString","coordinates":[[106.11020227761148,34.746109310532056],[105.68225470169713,34.6127195577313]]}},{"type":"Feature","properties":{"routelevel":1},"geometry":{"type":"LineString","coordinates":[[102.83236107881865,47.25013665497488],[103.89812073137146,44.679775415395135],[106.43713637421781,41.93231941041286]]}},{"type":"Feature","properties":{"routelevel":2},"geometry":{"type":"LineString","coordinates":[[114.49925589045628,38.15293894108337],[114.50032689589288,38.33005331077516],[114.50234990616272,38.355346789295815],[114.50853793757732,38.45456859026268],[114.46569772009164,38.53206062972803],[114.43166354731133,38.59403143829954],[114.39144134311645,38.652603280394146],[114.30480890331202,38.7729434396736],[114.16010416869368,38.85231623876118],[114.06204767089311,38.85824709958536],[113.92733898702144,38.86362150315977],[113.8611746511269,38.865289354421336],[113.8002463418139,38.86825430568699],[113.7564541194952,38.881595056079696],[113.67458170385585,38.90826904365535],[113.59707264370122,38.9489399169338],[113.43443848472782,38.8465702457087],[113.33733399176026,38.7634795691335],[113.29354176944152,38.729324974520665],[113.19643727647397,38.64609766050553],[112.99461225187467,38.54788408328002]]}},{"type":"Feature","properties":{"routelevel":2},"geometry":{"type":"LineString","coordinates":[[114.50853793757734,38.45605960771884],[114.73035506366996,38.598309731566644],[114.86173173062613,38.6540901962828],[115.00770580502194,38.750920987148426]]}},{"type":"Feature","properties":{"routelevel":2},"geometry":{"type":"LineString","coordinates":[[114.16522119467126,38.850184701262705],[114.4676017297577,38.90049016550205],[114.73225907333602,38.59979777371791]]}},{"type":"Feature","properties":{"routelevel":2},"geometry":{"type":"LineString","coordinates":[[114.86173173062619,38.65557708130815],[114.73035506367002,38.74027849904161],[114.57041825172344,39.10468014702694],[114.41428945910887,39.00709759632694],[114.47331375875584,38.90049016550203]]}},{"type":"Feature","properties":{"routelevel":2},"geometry":{"type":"LineString","coordinates":[[115.00770580502194,38.750920987148426],[114.88338984057731,39.02836285781241],[114.57232226138949,39.10394138622317],[114.65371867461239,39.298059102422236]]}},{"type":"Feature","properties":{"routelevel":2},"geometry":{"type":"LineString","coordinates":[[114.65371867461239,39.298059102422236],[114.85911371733546,39.272361291040134],[114.96193023930114,39.22517803182106],[115.11615502224961,39.156558290115235],[115.14709517932265,38.9852709414248],[115.23563162879307,38.84137991757615]]}},{"type":"Feature","properties":{"routelevel":2},"geometry":{"type":"LineString","coordinates":[[115.15899523973533,38.71484146570352],[115.00770580502194,38.750920987148426]]}},{"type":"Feature","properties":{"routelevel":2},"geometry":{"type":"LineString","coordinates":[[115.4793448660451,39.32558856234681],[114.96526225621672,39.22665298916075]]}},{"type":"Feature","properties":{"routelevel":2},"geometry":{"type":"LineString","coordinates":[[114.73202107212795,39.28783638025258],[114.88814986474247,39.306991277774515],[115.2213515562979,39.31877630191497],[115.4793448660451,39.32558856234681]]}},{"type":"Feature","properties":{"routelevel":2},"geometry":{"type":"LineString","coordinates":[[115.4907689240413,39.5415802672927],[115.4793448660451,39.32558856234681]]}},{"type":"Feature","properties":{"routelevel":2},"geometry":{"type":"LineString","coordinates":[[114.07965976030414,39.38300655887733],[114.15796215781957,39.32393162578419],[114.65371867461239,39.298059102422236]]}},{"type":"Feature","properties":{"routelevel":2},"geometry":{"type":"LineString","coordinates":[[112.91993937278502,39.08256030772555],[113.257365585787,39.173534999967536],[113.57914321934625,39.291520421412926],[113.81333640826804,39.34454912149684],[114.07965976030414,39.38300655887733]]}},{"type":"Feature","properties":{"routelevel":2},"geometry":{"type":"LineString","coordinates":[[114.07965976030414,39.38300655887733],[114.34645911475675,39.589283658344065],[114.3426510954247,39.623023146315205],[114.56018419976876,39.82401793831738]]}},{"type":"Feature","properties":{"routelevel":2},"geometry":{"type":"LineString","coordinates":[[114.56018419976876,39.82401793831738],[114.57303626501445,39.58194681175851],[114.65371867461239,39.298059102422236]]}},{"type":"Feature","properties":{"routelevel":2},"geometry":{"type":"LineString","coordinates":[[113.31410507383478,40.05780731094374],[113.60770336433676,39.71242649767777],[113.79429631160778,39.554059710598466],[113.81333640826809,39.52322407731035],[114.07965976030414,39.38300655887733]]}},{"type":"Feature","properties":{"routelevel":2},"geometry":{"type":"LineString","coordinates":[[113.31410507383478,40.05780731094374],[113.12598891883091,39.88796414575383],[113.12408490916486,39.800251331568624],[113.12979693816298,39.71535579623461],[113.0764846675141,39.62448970763322],[112.94129998122591,39.45122100347314],[112.75089901462277,39.1905076121534]]}},{"type":"Feature","properties":{"routelevel":2},"geometry":{"type":"LineString","coordinates":[[113.31410507383478,40.05780731094374],[114.2226984864648,40.079080871826065],[114.56018419976876,39.82401793831738]]}},{"type":"Feature","properties":{"routelevel":2},"geometry":{"type":"LineString","coordinates":[[114.56018419976876,39.82401793831738],[115.34606418942306,40.183894370445024],[115.65832177465215,40.32411996335242]]}},{"type":"Feature","properties":{"routelevel":2},"geometry":{"type":"LineString","coordinates":[[115.66125712288819,41.46592605652679],[114.76058121711854,40.72261225139156],[114.13939806357587,40.4564493312689],[114.22079447679872,40.079080871826065],[114.59778839067287,40.28854617877143],[115.13281510682755,40.34371385619351],[115.42793660506238,40.29435542520059],[115.65832177465215,40.32411996335242]]}},{"type":"Feature","properties":{"routelevel":2},"geometry":{"type":"LineString","coordinates":[[113.31410507383478,40.05780731094374],[113.78668027294364,40.323394166497735],[114.14082607082541,40.452465124674944],[114.62063650666519,40.46405489066874],[115.03380660419393,40.568272796371936],[115.13091109716149,40.34081141799529]]}},{"type":"Feature","properties":{"routelevel":2},"geometry":{"type":"LineString","coordinates":[[113.07934068201315,39.62668949133327],[112.55954604318669,39.41960428783013],[112.34248894125912,39.29004682820626]]}},{"type":"Feature","properties":{"routelevel":2},"geometry":{"type":"LineString","coordinates":[[115.65832177465215,40.32411996335242],[115.9172670892324,40.276926187877635],[116.1152840944996,40.2347869791517],[116.24094873245762,40.18534897526918],[116.285573959007,39.94762382711207],[116.30211504298386,39.43259583781395],[116.38351145620665,39.097600095536976],[116.10933406429821,38.817771506671846],[116.11790210779533,39.00111751595163],[116.30925507923145,39.39839589608641]]}},{"type":"Feature","properties":{"routelevel":2},"geometry":{"type":"LineString","coordinates":[[115.66125712288819,41.46592605652679],[115.80683452860264,41.15721105188212],[115.87157085724769,40.86411652296105],[115.890610953908,40.6246565088375],[115.65832177465215,40.32411996335242]]}},{"type":"Feature","properties":{"routelevel":2},"geometry":{"type":"LineString","coordinates":[[111.75319794962263,40.57116542549493],[112.39294519740905,40.40318631644731],[113.18691722814398,40.45826025758833],[113.35637408842074,40.30597241993943],[113.31410507383478,40.05780731094374]]}},{"type":"Feature","properties":{"routelevel":2},"geometry":{"type":"LineString","coordinates":[[109.77277780131328,40.942527485494445],[108.94219137709243,41.097023335522486],[108.72361600229745,41.36867697664984],[108.72361600229745,41.62200395388492],[109.42612492619985,41.81606443543158],[110.18001823645753,41.64607864812706],[110.4814221743327,41.725117896356934],[111.01807702161135,41.46972459977611],[111.47711654804816,41.17584444166073],[111.5532769346894,40.93751237453196],[111.54756490569135,40.71082659709799]]}},{"type":"Feature","properties":{"routelevel":2},"geometry":{"type":"LineString","coordinates":[[109.33332625830442,40.5223557953573],[109.75667224738096,40.791153317427295],[109.77047700789436,40.94426540670164],[110.06487179384449,41.102965682190636],[111.47902055771425,41.18014368650927]]}},{"type":"Feature","properties":{"routelevel":2},"geometry":{"type":"LineString","coordinates":[[111.51900476070101,38.73600868078154],[111.62658130683177,38.4174696153816],[111.87061187902889,38.41334632157629]]}},{"type":"Feature","properties":{"routelevel":2},"geometry":{"type":"LineString","coordinates":[[112.32535285426503,39.288757386666624],[112.27680060778134,39.00876206484436],[112.27299258844927,38.948076141117966],[112.03308737052936,38.68549408125852],[111.89599867457515,38.52479929197063],[111.87061187902889,38.41334632157629]]}},{"type":"Feature","properties":{"routelevel":2},"geometry":{"type":"LineString","coordinates":[[108.03797956346675,39.094346943510395],[110.34137703997115,38.922644849892066],[110.75168886529052,38.7085272227085],[110.8678334549184,38.647584711416876],[110.90972166757109,38.64349519989534],[110.91924171590122,38.51586125500767],[111.10393065350623,38.46220972900254],[111.22007524313412,38.47115442391598],[111.35335591975628,38.503942145957915],[111.62543096766024,38.420163088732885]]}},{"type":"Feature","properties":{"routelevel":2},"geometry":{"type":"LineString","coordinates":[[113.28556872896763,36.2902522349282],[113.17815878368279,36.157350485264786]]}},{"type":"Feature","properties":{"routelevel":2},"geometry":{"type":"LineString","coordinates":[[113.11170884633827,36.48089530206705],[113.14407701066082,36.31154311697779],[113.16026109282208,36.244773895028054],[113.17815878368279,36.157350485264786]]}},{"type":"Feature","properties":{"routelevel":2},"geometry":{"type":"LineString","coordinates":[[111.62543096766024,38.420163088732885],[111.78556611394788,38.13228651917864],[112.04831944786015,37.931323040727435],[112.12447983450136,37.90729056878289],[112.34534495576094,37.962853741439986],[112.48624167104721,37.859202070746555]]}},{"type":"Feature","properties":{"routelevel":2},"geometry":{"type":"LineString","coordinates":[[111.87061187902889,38.41334632157629],[111.79127814294596,38.13528179695447]]}},{"type":"Feature","properties":{"routelevel":2},"geometry":{"type":"LineString","coordinates":[[111.62543096766024,38.420163088732885],[111.08512855805677,37.454946338932]]}},{"type":"Feature","properties":{"routelevel":2},"geometry":{"type":"LineString","coordinates":[[111.08512855805677,37.454946338932],[111.76700201970405,37.237073876763624]]}},{"type":"Feature","properties":{"routelevel":2},"geometry":{"type":"LineString","coordinates":[[110.21430694146011,37.542447070699666],[110.75597288704171,37.40098654323142],[111.08512855805677,37.454946338932]]}},{"type":"Feature","properties":{"routelevel":2},"geometry":{"type":"LineString","coordinates":[[110.81452118427214,36.971903248857586],[110.88163752499973,36.79314646293096],[110.86640544767147,36.66954328017956],[110.70266061639279,36.47151779589955],[110.58401701407831,36.083948687317346]]}},{"type":"Feature","properties":{"routelevel":2},"geometry":{"type":"LineString","coordinates":[[110.10157082567284,36.57300400920351],[110.43990728248052,36.4607992566331],[110.70075660672677,36.47075223509761]]}},{"type":"Feature","properties":{"routelevel":2},"geometry":{"type":"LineString","coordinates":[[110.21832815759616,36.86401390110383],[110.2604543714571,36.80953562873848],[110.4146791544056,36.70809524616905]]}},{"type":"Feature","properties":{"routelevel":2},"geometry":{"type":"LineString","coordinates":[[110.12594959111327,36.85384956560995],[110.28930592385478,36.77648757183207],[110.55619796044653,36.78938666657315],[110.86430446641546,36.67195267488894],[111.56708100477078,36.666107018704466],[111.69940967655992,36.65159666769523]]}},{"type":"Feature","properties":{"routelevel":2},"geometry":{"type":"LineString","coordinates":[[112.9176585278753,36.11343558383856],[112.57906214226614,35.97423743703622],[112.34296494367834,35.9464967384621],[112.08973165809621,35.92183016070372],[111.83269035318206,35.9834821710174],[111.5094847123724,36.08066275149893],[110.70742064055794,36.00254601451376],[110.58401701407831,36.083948687317346]]}},{"type":"Feature","properties":{"routelevel":2},"geometry":{"type":"LineString","coordinates":[[112.08877965326322,35.923372047294556],[111.6794175750666,35.70257730909447],[112.1706520689025,35.691366825532825],[112.44387745597793,35.49395958619962],[112.82563139401714,35.51682178768827]]}},{"type":"Feature","properties":{"routelevel":2},"geometry":{"type":"LineString","coordinates":[[109.22633936432561,35.98554868046062],[110.06245837320364,36.1964315429006],[110.34899082092764,36.12279215274827],[110.58401701407831,36.083948687317346]]}},{"type":"Feature","properties":{"routelevel":2},"geometry":{"type":"LineString","coordinates":[[110.58401701407831,36.083948687317346],[110.50178759662661,35.69697226431013],[110.47893948063424,35.6289072104728],[110.54557981894396,35.577476219203554]]}},{"type":"Feature","properties":{"routelevel":2},"geometry":{"type":"LineString","coordinates":[[110.03607873237755,35.191053898337785],[110.35517885234223,35.42126109264247],[110.44657131631173,35.6273596031824],[110.48465150963236,35.625811965933806]]}},{"type":"Feature","properties":{"routelevel":2},"geometry":{"type":"LineString","coordinates":[[110.81427028893151,34.79249300835757],[110.77899145650846,34.74839366805275],[110.73297558813059,34.76666625371133],[110.54967904575868,34.7660362318692],[110.5068243350589,34.90474404063649],[110.55224385277643,34.76539549064877],[110.73883680004745,34.76930572812273],[110.7826290223662,34.74779712144304]]}},{"type":"Feature","properties":{"routelevel":2},"geometry":{"type":"LineString","coordinates":[[110.86830945733763,35.111122580278995],[110.96160593097314,35.083081814717914],[110.96255793580615,34.988763037710456],[110.9777900131344,34.87090685151459],[110.96826996480424,34.7948480528581]]}},{"type":"Feature","properties":{"routelevel":2},"geometry":{"type":"LineString","coordinates":[[111.43094431364976,34.67619183491469],[111.62229728508588,34.763831343790784],[112.04498743094473,34.69811041994077],[112.33725291468043,34.667970869502945],[112.59001019784603,34.82481110246985],[112.73804694937992,34.82129426632559]]}},{"type":"Feature","properties":{"routelevel":2},"geometry":{"type":"LineString","coordinates":[[113.06077658777212,34.92673403021285],[113.01508035578738,34.75561908654886]]}},{"type":"Feature","properties":{"routelevel":2},"geometry":{"type":"LineString","coordinates":[[113.71718392013624,34.79849629603046],[114.00040535795829,35.032428235484176],[114.14891811190873,35.10099786075219],[114.1850942955633,35.20685573187198],[114.19461434389343,35.30636077330446],[114.14891811190873,35.38556634766029]]}},{"type":"Feature","properties":{"routelevel":2},"geometry":{"type":"LineString","coordinates":[[114.18652230281283,35.20452211766814],[114.42023948931813,35.067499445059624]]}},{"type":"Feature","properties":{"routelevel":2},"geometry":{"type":"LineString","coordinates":[[114.36359520175377,35.555362788307626],[114.41643146998611,35.5146908406004],[114.43737557631245,35.50151645758281],[114.49639987595943,35.49609108343659]]}},{"type":"Feature","properties":{"routelevel":2},"geometry":{"type":"LineString","coordinates":[[113.17815878368279,36.157350485264786],[113.29592178152697,36.08567975934394],[113.85855663783907,36.00639673659721],[114.38787132499567,36.12567580134169]]}},{"type":"Feature","properties":{"routelevel":2},"geometry":{"type":"LineString","coordinates":[[116.29545100915037,39.947228578006],[116.65054881186514,40.15346173743201],[116.79810956098251,40.403307141977585],[117.14654332986612,40.572732214062675],[117.18557552801975,40.724416041401724],[117.41215267827744,40.98723609119218],[118.68783915451812,41.00017009561401],[118.46030999942744,40.605987682576625],[118.24610891199897,40.52788346261201],[118.26800502315835,40.30609341978852],[117.96717149592544,40.21455568504887],[117.44166482810095,40.03985562017267]]}},{"type":"Feature","properties":{"routelevel":2},"geometry":{"type":"LineString","coordinates":[[118.68879115935118,41.000888577011686],[118.80398374414604,41.32912938088224],[119.07816113605452,41.52542676114562],[119.04388896206594,41.75735924207394],[118.85348799546286,42.20461559479843],[118.8439679471327,42.330016128539775],[118.9201283337739,42.94630612444429],[118.49363016858302,43.23829154082187],[118.49577217945728,43.313494777372604]]}},{"type":"Feature","properties":{"routelevel":2},"geometry":{"type":"LineString","coordinates":[[115.66125712288819,41.46592605652679],[115.8042165153145,41.613744847275875],[115.74138419633543,42.0407978533549],[115.93178516293851,42.290591170490806],[116.79810956098254,42.80258551827427],[117.27506398232327,43.17514617370824],[117.87387502228994,43.29097823521478],[118.49577217945728,43.313494777372604]]}},{"type":"Feature","properties":{"routelevel":2},"geometry":{"type":"LineString","coordinates":[[118.49577217945728,43.313494777372604],[118.78779966198474,43.66195161096001],[119.3780426584543,43.93954353380045],[119.14384946953248,44.33444924534752]]}},{"type":"Feature","properties":{"routelevel":2},"geometry":{"type":"LineString","coordinates":[[118.49577217945728,43.313494777372604],[121.74663068299665,42.7655547280645],[122.1769368675196,44.284037810854585]]}},{"type":"Feature","properties":{"routelevel":2},"geometry":{"type":"LineString","coordinates":[[119.54749951873106,41.06551982685521],[119.7309191165587,41.031057722952184]]}},{"type":"Feature","properties":{"routelevel":2},"geometry":{"type":"LineString","coordinates":[[120.36876235467899,40.33948108428243],[120.71275343434185,40.598759639717535],[120.90315440094493,40.849835650254136],[121.24206812149843,41.11717913630287],[121.68189435435157,41.32341002946121]]}},{"type":"Feature","properties":{"routelevel":2},"geometry":{"type":"LineString","coordinates":[[123.27459843998642,41.3691507832429],[124.13425880419933,41.23254809134179]]}},{"type":"Feature","properties":{"routelevel":2},"geometry":{"type":"LineString","coordinates":[[121.704742470344,42.158055381127895],[122.96138884992436,42.03655556958197],[123.51164764340723,41.94456988611245]]}},{"type":"Feature","properties":{"routelevel":2},"geometry":{"type":"LineString","coordinates":[[121.74472667333067,42.76835027744486],[121.70664648001005,42.15452669518548],[121.44008512676572,41.61516834306585]]}},{"type":"Feature","properties":{"routelevel":2},"geometry":{"type":"LineString","coordinates":[[118.8582480196279,42.4916810289629],[119.4066028034447,42.08603125750309],[119.3190183588073,41.63509398538945],[119.0791131408874,41.518299074090116]]}},{"type":"Feature","properties":{"routelevel":2},"geometry":{"type":"LineString","coordinates":[[114.72892705642332,36.96714945124933],[115.68711992085333,36.99946949888142],[115.49481494458419,37.30449925787718],[115.0245245570746,37.198409653016824],[114.73130706850583,37.104319884667156],[114.53868475729224,37.04068400000076]]}},{"type":"Feature","properties":{"routelevel":2},"geometry":{"type":"LineString","coordinates":[[116.29354699948671,39.84552269936028],[116.5334522174066,39.44307310635032],[116.6034245726332,39.29514287289083],[116.64840680099321,39.14080811403997],[116.64412277924465,39.110897692734035],[116.82262368543503,38.998343080209466],[116.83690375793023,38.60550164950266],[116.852611837675,38.451337946731535],[116.84975582317598,38.29124037289961],[116.69410303297796,38.07685171080376],[116.47704593105044,37.89564701733279],[116.28640696323907,37.44634939895391],[116.23714071313049,37.310178413109284],[116.05078576706774,37.18456911189054],[115.84372471588692,37.096347230356656],[115.68819092629174,36.99965956454473],[115.6852159111873,36.78780969865162],[115.30631798764713,36.664197918254594],[115.30441397798113,36.62906201924207],[115.21873354300975,36.45467371173371]]}},{"type":"Feature","properties":{"routelevel":2},"geometry":{"type":"LineString","coordinates":[[115.67759987252319,36.786284840579604],[115.87561687779038,36.489888986648424],[116.05459378639726,36.735947503589294],[116.21453059834388,36.854873405191896],[116.42016364227774,37.196893005166324],[116.5801004542243,37.33932465677257],[117.02563871607555,37.72284363355928],[117.49497709875212,37.50943358962253]]}},{"type":"Feature","properties":{"routelevel":2},"geometry":{"type":"LineString","coordinates":[[116.2830749463235,37.44975050514364],[116.58200446389037,37.342856763157876],[116.78763750782171,37.18779247821058],[116.87331794279307,36.999469498881254],[117.00088659041714,36.65808847860164]]}},{"type":"Feature","properties":{"routelevel":2},"geometry":{"type":"LineString","coordinates":[[115.99437948071157,39.53839887863019],[115.99080946258773,39.26861482300229],[115.96938935384496,39.06711697496832],[116.11504609329631,38.95837914404615]]}},{"type":"Feature","properties":{"routelevel":2},"geometry":{"type":"LineString","coordinates":[[114.73579934131075,37.73451440647556],[115.33214111874528,37.988556259809016],[115.50207398143853,38.0166873801173],[115.66058278613558,38.1369665866817],[115.79053144584222,38.22003457695565],[116.08184492474491,38.421696256272504],[116.10897706248586,38.81554622656562]]}},{"type":"Feature","properties":{"routelevel":2},"geometry":{"type":"LineString","coordinates":[[115.49707595606525,38.01331221551596],[115.53134813005377,37.918744523131735],[115.55705226054519,37.833078367370426],[115.61131653602709,37.707781773461996],[116.08541494286875,38.418339826368914]]}},{"type":"Feature","properties":{"routelevel":2},"geometry":{"type":"LineString","coordinates":[[115.49636195244048,37.30506719270256],[115.54277218805,37.54435256285864],[115.61203053965185,37.708346648472194]]}},{"type":"Feature","properties":{"routelevel":2},"geometry":{"type":"LineString","coordinates":[[116.84939882136366,38.294042322914926],[117.0121916478093,38.201520810197806]]}},{"type":"Feature","properties":{"routelevel":2},"geometry":{"type":"LineString","coordinates":[[115.35320422567595,36.38888935042389],[115.6530857480758,36.447494723095176],[115.87585487900138,36.494576769939364]]}},{"type":"Feature","properties":{"routelevel":2},"geometry":{"type":"LineString","coordinates":[[108.66191925622344,34.366660392669935],[108.82756809716813,34.295906313190414],[108.60195225100878,34.08408239070208]]}},{"type":"Feature","properties":{"routelevel":2},"geometry":{"type":"LineString","coordinates":[[109.81967613377435,34.85538167658015],[109.92784768292569,34.67491959601533],[110.02423817226851,34.6208803463974],[109.7436347477372,34.60912802330872],[109.45017925796022,34.573273163168636],[109.15458175730889,34.45089770444915],[109.06247528971468,34.36518695341269],[109.2645383155222,34.05253041366336]]}},{"type":"Feature","properties":{"routelevel":2},"geometry":{"type":"LineString","coordinates":[[110.92263323312527,35.173473808727074],[111.21823073377654,34.9981949393764],[111.18395855978801,34.75393253977031]]}},{"type":"Feature","properties":{"routelevel":2},"geometry":{"type":"LineString","coordinates":[[112.44144973292873,35.11442272347685],[112.76633070714752,34.90943474754263]]}},{"type":"Feature","properties":{"routelevel":2},"geometry":{"type":"LineString","coordinates":[[111.07349301412707,35.07934810350668],[111.18086337367549,35.01404916572562],[111.20540517014368,34.85812582931746],[111.19926972102665,34.75989326690226]]}},{"type":"Feature","properties":{"routelevel":2},"geometry":{"type":"LineString","coordinates":[[110.84341367223766,35.62479592988749],[111.3342496016018,35.657206107022944],[111.67169930303962,35.70206003044873]]}},{"type":"Feature","properties":{"routelevel":2},"geometry":{"type":"LineString","coordinates":[[111.2882337332239,35.48753058527395],[111.55205804525713,35.42505958368546],[111.68397020127375,35.23986138001805],[111.88183843529866,35.10193941718496],[111.84195801603782,34.73972852901769]]}},{"type":"Feature","properties":{"routelevel":2},"geometry":{"type":"LineString","coordinates":[[109.3528830023647,40.53372303156672],[110.03715033602901,40.57456637765134]]}},{"type":"Feature","properties":{"routelevel":2},"geometry":{"type":"LineString","coordinates":[[109.5883308622316,35.195375737733926],[109.56455599690304,34.92103380356646]]}},{"type":"Feature","properties":{"routelevel":2},"geometry":{"type":"LineString","coordinates":[[110.01781230042523,35.186601084108624],[109.5883308622316,35.195375737733926]]}},{"type":"Feature","properties":{"routelevel":2},"geometry":{"type":"LineString","coordinates":[[109.5883308622316,35.195375737733926],[109.06125743652011,35.1108800709311]]}},{"type":"Feature","properties":{"routelevel":2},"geometry":{"type":"LineString","coordinates":[[108.71211203520285,38.01301792931398],[109.76127383421867,37.98763534344749]]}},{"type":"Feature","properties":{"routelevel":2},"geometry":{"type":"LineString","coordinates":[[108.83750527653332,41.116093161447175],[107.76648594003754,41.034574222112376],[109.3436798286894,40.52148126137669],[110.39629281783357,39.05505135812305]]}},{"type":"Feature","properties":{"routelevel":2},"geometry":{"type":"LineString","coordinates":[[106.31468529271518,38.52422221727718],[106.67821065290052,38.886905661026184],[108.02685906194228,39.094049323152554]]}},{"type":"Feature","properties":{"routelevel":2},"geometry":{"type":"LineString","coordinates":[[108.00806924902143,39.090775521825805],[107.35648455279076,37.772256236473844]]}},{"type":"Feature","properties":{"routelevel":2},"geometry":{"type":"LineString","coordinates":[[107.26836416484733,36.64183912298722],[105.90629446086183,36.96974588020712],[106.5784137383561,37.47836967727426],[107.35648455279076,37.772256236473844]]}},{"type":"Feature","properties":{"routelevel":2},"geometry":{"type":"LineString","coordinates":[[106.30663251574934,38.515221584383575],[106.02823651206312,38.036579605942265],[106.16168253035896,38.00032773456205],[107.35648455279076,37.772256236473844]]}},{"type":"Feature","properties":{"routelevel":2},"geometry":{"type":"LineString","coordinates":[[105.1631381865588,37.50734983296939],[105.7429381281202,37.6076662521029],[106.03283809890088,38.03839172876084]]}},{"type":"Feature","properties":{"routelevel":2},"geometry":{"type":"LineString","coordinates":[[107.35648455279076,37.772256236473844],[108.3451354848898,37.574850291815714],[108.60282434780596,37.711487964604856]]}},{"type":"Feature","properties":{"routelevel":2},"geometry":{"type":"LineString","coordinates":[[107.75728276636245,36.298624504369144],[108.1800535570842,36.915038996304986],[108.34973707172757,37.5794089293258]]}},{"type":"Feature","properties":{"routelevel":2},"geometry":{"type":"LineString","coordinates":[[108.36124103882207,37.59034852063277],[108.40725690719997,37.191846034177495],[108.63963704250831,36.84464390475323],[108.68105132404843,36.56241528838123],[108.98245526192356,36.49955717726519],[109.17572190911069,36.41998702362171],[109.24704650509643,36.29769734526544]]}},{"type":"Feature","properties":{"routelevel":2},"geometry":{"type":"LineString","coordinates":[[106.97386260722894,35.73755150139067],[107.85564168502015,36.0009063248244],[108.69255529114288,36.12319577337857],[109.21943698406972,35.99299521709687]]}},{"type":"Feature","properties":{"routelevel":2},"geometry":{"type":"LineString","coordinates":[[107.7515307828151,35.37629853998185],[107.30517685954959,35.34064682375652]]}},{"type":"Feature","properties":{"routelevel":2},"geometry":{"type":"LineString","coordinates":[[106.26521823420939,36.01905255958576],[107.19473877544269,35.657206107022965],[107.65029587238378,35.70766499789801]]}},{"type":"Feature","properties":{"routelevel":2},"geometry":{"type":"LineString","coordinates":[[106.46308646823435,41.940263599002776],[108.01267083585972,41.8991761253876],[108.73051838255476,41.626303665907535]]}},{"type":"Feature","properties":{"routelevel":2},"geometry":{"type":"LineString","coordinates":[[107.2559974002209,40.86275118433393],[107.56272192287722,41.274180529330835],[108.56141006626605,41.29265860758288],[108.91688264948522,41.10829253840912]]}},{"type":"Feature","properties":{"routelevel":2},"geometry":{"type":"LineString","coordinates":[[107.35648455279076,37.772256236473844],[107.51569945737853,36.81149434874969],[107.6951613440523,36.51250272893998],[107.75728276636245,36.298624504369144],[107.75038038610576,36.120408020619735]]}},{"type":"Feature","properties":{"routelevel":2},"geometry":{"type":"LineString","coordinates":[[107.2956860866968,35.33736232143148],[106.85048256014073,34.89202348194188]]}},{"type":"Feature","properties":{"routelevel":2},"geometry":{"type":"LineString","coordinates":[[110.096326875846,37.14578166898822],[109.63041620851989,37.13477707066228],[109.51307574415627,37.17053616153043],[109.11273768926867,37.12652257140668]]}},{"type":"Feature","properties":{"routelevel":2},"geometry":{"type":"LineString","coordinates":[[106.69863019449373,38.88712952403152],[106.62270401167022,40.13846125354119],[107.25772299528505,40.857530853615955],[107.76159675402292,41.02437731169919]]}},{"type":"Feature","properties":{"routelevel":2},"geometry":{"type":"LineString","coordinates":[[102.60948719174154,37.957722075511896],[106.01963571427166,38.04129687211786],[106.01963571427166,38.04129687211786]]}},{"type":"Feature","properties":{"routelevel":2},"geometry":{"type":"LineString","coordinates":[[98.31459537727551,39.84498520648124],[99.8539080639142,39.27074149512918],[100.45970208897849,38.91619000641482],[102.61473985027271,37.94375756844701]]}},{"type":"Feature","properties":{"routelevel":2},"geometry":{"type":"LineString","coordinates":[[98.32312811322348,39.89710245050392],[98.97950458432904,40.070527363898606],[101.01653501189803,41.68758637397664],[101.01653501189803,42.15072292052277]]}},{"type":"Feature","properties":{"routelevel":2},"geometry":{"type":"LineString","coordinates":[[101.01755036000203,42.18479525975357],[101.42049226734626,43.47595082766415],[103.39140377066039,43.78029357668789],[104.02576324574724,44.53597251144079]]}},{"type":"Feature","properties":{"routelevel":3},"geometry":{"type":"LineString","coordinates":[[112.91993937278502,39.08256030772555],[113.52226093057337,38.98527094166653],[113.59707264370122,38.9489399169338]]}},{"type":"Feature","properties":{"routelevel":3},"geometry":{"type":"LineString","coordinates":[[115.228967594962,39.31803979605995],[115.36415228125021,39.39238772275707]]}},{"type":"Feature","properties":{"routelevel":3},"geometry":{"type":"LineString","coordinates":[[115.2505463711771,39.64795045113964],[115.22230356113089,39.58855000864275],[115.26038375445152,39.45195610519596],[115.36510428608321,39.39091625449598],[115.4793448660451,39.32558856234681]]}},{"type":"Feature","properties":{"routelevel":3},"geometry":{"type":"LineString","coordinates":[[115.2505463711771,39.64795045113964],[115.4907689240413,39.5415802672927]]}},{"type":"Feature","properties":{"routelevel":3},"geometry":{"type":"LineString","coordinates":[[112.6688679315115,38.42623335764321],[112.99461225187467,38.54788408328002]]}},{"type":"Feature","properties":{"routelevel":3},"geometry":{"type":"LineString","coordinates":[[113.20310131030507,38.64684118981889],[113.32495792893106,38.483078957962924],[114.03705754402667,38.38165756247069],[114.16522119467126,38.850184701262705]]}},{"type":"Feature","properties":{"routelevel":3},"geometry":{"type":"LineString","coordinates":[[113.8609366499189,40.06742495103863],[114.20937041880255,39.83242570682849],[114.55590017802021,39.833887820540006]]}},{"type":"Feature","properties":{"routelevel":3},"geometry":{"type":"LineString","coordinates":[[115.26609578344976,40.14606369801148],[115.20135945480467,39.95367520586882],[115.25086370612149,39.769525378719216],[115.2505463711771,39.64795045113964]]}},{"type":"Feature","properties":{"routelevel":3},"geometry":{"type":"LineString","coordinates":[[114.72726104796298,41.1443079089182],[115.33273612176085,41.20306832548859]]}},{"type":"Feature","properties":{"routelevel":3},"geometry":{"type":"LineString","coordinates":[[113.81143239860215,40.97489851931895],[114.7348770866272,41.14860923873226],[114.76058121711854,40.72261225139156]]}},{"type":"Feature","properties":{"routelevel":3},"geometry":{"type":"LineString","coordinates":[[111.47902055771425,41.18014368650927],[112.59477022200836,41.3475946917423],[113.82095244693232,40.97777349957287]]}},{"type":"Feature","properties":{"routelevel":3},"geometry":{"type":"LineString","coordinates":[[111.62705730924822,40.154795724358195],[111.38286806957976,40.03608978000117]]}},{"type":"Feature","properties":{"routelevel":3},"geometry":{"type":"LineString","coordinates":[[111.13747717122959,40.261100403283486],[111.38762809374487,40.033903067691476],[111.35145191009026,39.7592803454763],[111.27338751378299,39.48943600082148],[111.38382007441281,39.38061510779456],[111.69226964030983,39.093043860354555]]}},{"type":"Feature","properties":{"routelevel":3},"geometry":{"type":"LineString","coordinates":[[112.32535285426503,39.288757386666624],[111.6960776596419,39.09008830714829],[111.52090877036706,38.74343428759769]]}},{"type":"Feature","properties":{"routelevel":3},"geometry":{"type":"LineString","coordinates":[[114.40952943494656,36.20579881514298],[114.58898234596994,36.348676342737065],[114.70576160548652,36.57836681800102],[114.78192199212775,36.75247602938201],[114.7311484010336,36.96676913368416],[114.53868475729224,37.04068400000076],[114.35098113771583,37.121780862042],[114.24816461575017,37.17843801589473],[113.98033392272852,37.321913974588874],[113.66172963861267,37.31888561800015],[113.45531912406787,37.05810478193231]]}},{"type":"Feature","properties":{"routelevel":3},"geometry":{"type":"LineString","coordinates":[[114.05903298892447,38.00818666837322],[113.92829099185704,37.90409816539798],[113.98033392272853,37.31888561800015]]}},{"type":"Feature","properties":{"routelevel":3},"geometry":{"type":"LineString","coordinates":[[113.92702165207965,37.90509971862441],[113.83435984833281,37.86703111412561]]}},{"type":"Feature","properties":{"routelevel":3},"geometry":{"type":"LineString","coordinates":[[113.70234851148801,37.788828653236685],[113.78612493679334,37.59396593949467],[113.95812047662483,37.570326676139345],[114.2481646157502,37.6110620025573],[114.47791511545127,37.602011635039794]]}},{"type":"Feature","properties":{"routelevel":3},"geometry":{"type":"LineString","coordinates":[[113.78485559701599,37.5959774449435],[113.66172963861267,37.31787613868735]]}},{"type":"Feature","properties":{"routelevel":3},"geometry":{"type":"LineString","coordinates":[[114.48172313478337,38.03518552129628],[114.53503540543224,37.74568161062086],[114.47664577567396,37.60000029271708],[114.52107266788133,37.41472430865014],[114.6276972091791,37.58189576499661]]}},{"type":"Feature","properties":{"routelevel":3},"geometry":{"type":"LineString","coordinates":[[114.52170733777,37.41472430865014],[114.56042220097933,37.27748584996295]]}},{"type":"Feature","properties":{"routelevel":3},"geometry":{"type":"LineString","coordinates":[[113.45531912406787,37.05810478193231],[113.54368103931878,37.02607569779897],[113.62745746462416,36.8881294081895],[114.19866036443344,36.77128878666082],[114.42761752677374,36.71350114998443],[114.78319133190512,36.74967914448903]]}},{"type":"Feature","properties":{"routelevel":3},"geometry":{"type":"LineString","coordinates":[[113.85466928477052,36.840398716157964],[114.13392403578837,36.55542840064835],[114.16438819044488,36.52279314215194],[114.3446344388292,36.42531542944435]]}},{"type":"Feature","properties":{"routelevel":3},"geometry":{"type":"LineString","coordinates":[[114.4521316512239,36.84077966413478],[114.19509034630974,36.77141588418988],[113.78763227777914,36.522410616064676],[113.59151928217796,36.508638417361134],[113.4796587142987,36.46730711792095],[113.28556872896763,36.2902522349282]]}},{"type":"Feature","properties":{"routelevel":3},"geometry":{"type":"LineString","coordinates":[[113.45531912406787,37.05810478193231],[113.48108672154824,36.46826411027269]]}},{"type":"Feature","properties":{"routelevel":3},"geometry":{"type":"LineString","coordinates":[[112.75756304845655,37.7042041317484],[113.36303812225434,37.32210324282402],[113.45531912406787,37.05810478193231]]}},{"type":"Feature","properties":{"routelevel":3},"geometry":{"type":"LineString","coordinates":[[112.90607580240693,37.00878272801121],[113.01650836303675,37.000419880654476],[113.45531912406787,37.05810478193231]]}},{"type":"Feature","properties":{"routelevel":3},"geometry":{"type":"LineString","coordinates":[[112.49766572904333,37.489229803725905],[112.5438379634446,37.48356420128655],[112.59429421959443,37.47676491006403],[112.68663868839688,37.42310436858706],[112.90464779515744,37.004221288953005],[113.00556030745709,36.91293504568318],[112.99223223979486,36.72545640059302],[113.19596127406017,36.54210824995542],[113.11408885842081,36.47936435815885],[113.34257001834452,36.45027067748636],[113.432058472648,36.419633957770415]]}},{"type":"Feature","properties":{"routelevel":3},"geometry":{"type":"LineString","coordinates":[[112.3777131200834,36.38668599877739],[112.9176585278753,36.11343558383856],[112.92035587490219,35.77502083739457]]}},{"type":"Feature","properties":{"routelevel":3},"geometry":{"type":"LineString","coordinates":[[111.08512855805677,37.454946338932],[111.19579911989482,37.306392342030236],[110.81452118427214,36.971903248857586]]}},{"type":"Feature","properties":{"routelevel":3},"geometry":{"type":"LineString","coordinates":[[112.82610739643378,35.38420808334669],[112.44144973292873,35.11442272347685],[112.3229728421887,35.09990256330683],[111.76819202574897,35.1997331368508],[111.6118252319262,35.315173319036056],[111.52614479695482,35.42172172311471],[111.32693778564634,35.45313535217446],[111.26910349204063,35.65876532733408]]}},{"type":"Feature","properties":{"routelevel":3},"geometry":{"type":"LineString","coordinates":[[112.86609159942041,35.132341468333834],[113.09266874967807,35.06613584614296],[113.40016631074204,35.08171847617047]]}},{"type":"Feature","properties":{"routelevel":3},"geometry":{"type":"LineString","coordinates":[[115.77280035582498,41.21679537552815],[116.74765330483275,41.25974838909961],[117.41405668794356,40.990110533687904]]}},{"type":"Feature","properties":{"routelevel":3},"geometry":{"type":"LineString","coordinates":[[119.40612680102817,42.0870910289081],[119.66507211560837,41.85989657899527],[120.11822641612372,41.80882582550231],[120.31624342139092,41.598440283483555]]}},{"type":"Feature","properties":{"routelevel":3},"geometry":{"type":"LineString","coordinates":[[116.58200446389037,37.342856763157876],[117.15511137336564,37.3665680581545],[117.49497709875212,37.50943358962253]]}},{"type":"Feature","properties":{"routelevel":3},"geometry":{"type":"LineString","coordinates":[[116.05257077612966,37.18343142034262],[116.42242465375614,37.19196368922182]]}},{"type":"Feature","properties":{"routelevel":3},"geometry":{"type":"LineString","coordinates":[[117.0121916478093,38.201520810197806],[117.86613998302411,39.19837757754131],[118.08141207588976,39.35672654095183],[118.88538015737129,39.4372832316957],[118.86110403412934,39.86717294437642]]}},{"type":"Feature","properties":{"routelevel":3},"geometry":{"type":"LineString","coordinates":[[109.81967613377435,34.85538167658015],[109.94641177716957,34.99139530565287],[110.03607873237755,35.191053898337785]]}},{"type":"Feature","properties":{"routelevel":3},"geometry":{"type":"LineString","coordinates":[[109.9492677916686,34.99490486456852],[110.00353206715047,34.85674882925139]]}},{"type":"Feature","properties":{"routelevel":3},"geometry":{"type":"LineString","coordinates":[[109.42612492619985,41.81606443543158],[109.76587542105653,40.954691973524504]]}},{"type":"Feature","properties":{"routelevel":3},"geometry":{"type":"LineString","coordinates":[[110.48372296775162,41.725117896356934],[110.06487179384449,41.102965682190636]]}}]}